[{"OBJECT_NAME":"STARLINK-3196","OBJECT_ID":"2021-115AW","EPOCH":"2026-03-09T11:06:09.338976","MEAN_MOTION":15.08835295,"ECCENTRICITY":0.00013815,"INCLINATION":53.2182,"RA_OF_ASC_NODE":140.1345,"ARG_OF_PERICENTER":70.7782,"MEAN_ANOMALY":289.3359,"EPHEMERIS_TYPE":0,"CLASSIFICATION_TYPE":"U","NORAD_CAT_ID":49768,"ELEMENT_SET_NO":999,"REV_AT_EPOCH":23564,"BSTAR":2.4031709e-5,"MEAN_MOTION_DOT":9.5e-7,"MEAN_MOTION_DDOT":0},{"OBJECT_NAME":"OBJECT E","OBJECT_ID":"2025-013E","EPOCH":"2026-03-09T23:59:52.369152","MEAN_MOTION":15.10347623,"ECCENTRICITY":0.00085591,"INCLINATION":97.6477,"RA_OF_ASC_NODE":238.3736,"ARG_OF_PERICENTER":6.9171,"MEAN_ANOMALY":353.2174,"EPHEMERIS_TYPE":0,"CLASSIFICATION_TYPE":"U","NORAD_CAT_ID":62733,"ELEMENT_SET_NO":999,"REV_AT_EPOCH":6224,"BSTAR":0.00032920786,"MEAN_MOTION_DOT":5.34e-5,"MEAN_MOTION_DDOT":0}]
